#aV2008 12 16  0  0   .00000000      96 DD+AD WGS84 FIT  NGA
## 1510 172800.00000000   900.00000000 54816  .0000000000000
+   31     2  3  4  5  6  7  8  9 10 11 12 13 14 15 16 17 18
+         19 20 21 22 23 24 25 26 27 28 29 30 31 32  0  0  0
+          0  0  0  0  0  0  0  0  0  0  0  0  0  0  0  0  0
+          0  0  0  0  0  0  0  0  0  0  0  0  0  0  0  0  0
+          0  0  0  0  0  0  0  0  0  0  0  0  0  0  0  0  0
++         0  0  0  0  0  0  0  0  0  0  0  0  0  0  0  0  0
++         0  0  0  0  0  0  0  0  0  0  0  0  0  0  0  0  0
++         0  0  0  0  0  0  0  0  0  0  0  0  0  0  0  0  0
++         0  0  0  0  0  0  0  0  0  0  0  0  0  0  0  0  0
++         0  0  0  0  0  0  0  0  0  0  0  0  0  0  0  0  0
%c cc cc ccc ccc cccc cccc cccc cccc ccccc ccccc ccccc ccccc
%c cc cc ccc ccc cccc cccc cccc cccc ccccc ccccc ccccc ccccc
%f  0.0000000  0.000000000  0.00000000000  0.000000000000000
%f  0.0000000  0.000000000  0.00000000000  0.000000000000000
%i    0    0    0    0      0      0      0      0         0
%i    0    0    0    0      0      0      0      0         0
/*      NGA, ST. LOUIS,MO.                                  
/*   EPHEMERIS COMPUTED FROM  3 DAYS OF DATA                
/* CCCCCCCCCCCCCCCCCCCCCCCCCCCCCCCCCCCCCCCCCCCCCCCCCCCCCCCCC
/* CCCCCCCCCCCCCCCCCCCCCCCCCCCCCCCCCCCCCCCCCCCCCCCCCCCCCCCCC
*  2008 12 16 22 30   .00000000                                                 
P  2  20742.096599 -13662.814559   8722.514150    166.670175                    
V  2  11904.259855   -358.600629 -28833.797254      -.021663                    
P  3 -10759.595400  21065.081670  11424.420699    325.699224                    
V  3  -2104.217383 -15452.634724  26197.774694       .052777                    
P  4  25973.951433  -4946.729043  -4255.327313   -267.091891                    
V  4  -4055.822707   4463.610686 -30465.009857      -.128279                    
P  5 -11828.980705 -20316.010467 -12774.131445   -380.458004                    
V  5  14130.194756   7379.925694 -25289.097801       .207318                    
P  6 -13968.237815  17276.130926  14727.818606    119.940431                    
V  6    461.248227 -18648.579889  22614.112005      -.098291                    
P  7  14807.542428   9647.122979  19841.556265     23.537333                    
V  7 -23639.258267   8765.675088  13260.813000       .000240                    
P  8  24351.137171   1197.105629  11064.900104   -182.402420                    
V  8 -13132.125966   4859.120711  27734.679688      -.015917                    
P  9   2507.606013 -16360.593571 -21391.020749     30.053725                    
V  9  24359.217375  -8142.137969   9479.738032       .020123                    
P 10   9759.348836 -11596.369117  21657.515559     -8.395396                    
V 10  20391.559803  18981.588003   1299.033850      -.004294                    
P 11    969.270522  17850.597931 -19754.295972     13.096323                    
V 11 -22632.056828  10939.506846   9216.863845      -.010017                    
P 12  -7317.245129 -20664.949319 -14994.223629   -333.295541                    
V 12  15417.457385  11459.795699 -23107.449297       .028941                    
P 13   6273.940653  19269.626002  17061.539848    281.348338                    
V 13  -6766.469666  20763.448827 -20813.262413       .014693                    
P 14 -15236.143767   2769.816796 -21441.831630   -180.959409                    
V 14   6135.326190 -26761.287442  -7879.758255       .050263                    
P 15   6308.502932 -25730.309433   1619.154066   -227.738903                    
V 15   2514.144497   2562.498256  31606.197054      -.059202                    
P 16 -14823.699344   6168.759198  21253.824772     88.499116                    
V 16 -19152.987637 -18735.624626  -7729.666260      -.025131                    
P 17  15373.781242    691.817735 -21589.027407     42.177269                    
V 17  -5778.966323  26931.173943  -3424.022103       .007382                    
P 18 -20224.577867 -17370.654487  -2101.196342   -102.393358                    
V 18     -3.387432  -4170.639213  31017.658649       .037706                    
P 19  -7232.165152  25430.021082   -182.970375     34.845457                    
V 19  -3098.226607   -575.100219  31813.075779      -.003285                    
P 20  10192.048085  21031.562633 -12781.336007     96.212840                    
V 20 -13861.237939  -8522.610948 -25266.211025      -.010107                    
P 21 -19573.159842  -7225.869903  16994.438259     38.085196                    
V 21  19601.517024  -7761.960461  18911.711753      -.016329                    
P 22 -21710.648361  -8129.255220 -12853.450249    208.026889                    
V 22  -9986.683405 -13534.404865  25058.112520      -.005320                    
P 23   1441.370703  24518.869322   9707.866755    382.872393                    
V 23  -5066.423951  11655.664786 -28807.823052       .009694                    
P 24  -4178.192885 -14908.028774  21720.731746    149.883387                    
V 24  26310.901147  -7210.482051    384.139849       .031610                    
P 25   7727.755769  13211.942700  22056.973831    105.454081                    
V 25 -24817.751481  10983.868044   2328.161259       .285179                    
P 26  10547.179064 -23030.252641   6500.802293     26.964333                    
V 26   -176.708140   9292.523195  31355.205428       .039247                    
P 27  22309.693968   2287.803713  15014.043591      8.495329                    
V 27 -16033.442688   7902.107588  23589.419642       .030931                    
P 28  21830.909024  10294.364568 -11049.706228    -23.757509                    
V 28   9002.779679  11599.011548  27257.024868      -.000173                    
P 29  -6800.041542 -20116.498230  16079.704997    -24.433622                    
V 29   6512.385597 -19234.043427 -21408.574974       .023840                    
P 30 -17776.993106 -19273.037729  -4871.440090    114.024000                    
V 30   6292.683027   1394.157588 -30672.894971       .022782                    
P 31 -25525.175577   7418.223703  -1272.557650    -43.762780                    
V 31   1024.557767  -2873.388969 -31844.631511      -.016385                    
P 32   2366.865334  19871.635196 -17155.395192    309.364524                    
V 32 -16543.274174 -15345.446788 -19366.335111      -.020516                    
EOF
